STARLINK-31206          
1 59028U 24038F   26068.41316328 -.00000655  00000+0 -14307-4 0  9997
2 59028  42.9983 323.5845 0000464 349.5799  10.5043 15.27574840115486
2025-313BC              
1 67298U 25313BC  26068.18968176  .00075331  00000+0  26410-2 0  9997
2 67298  97.3985 144.8110 0008478 328.9209  31.1528 15.29126358  7890
